{"fetched_at":"2026-03-29T16:36:15Z","count":15609,"tles":[{"name":"CONNECTA IOT-11","line1":"1 64557U 25135AF  26087.55657490 -.00000181  00000+0 -50688-5 0  9990","line2":"2 64557  97.4609 203.6272 0000180  57.9904 302.1349 15.21101592 42611","category":"Other"}]}